XRISM                   
1 57800U 23137A   24045.22052816  .00009002  00000+0  70744-3 0  9992
2 57800  31.0040  80.7091 0009758  62.2301 297.9323 14.99594331 24052
